{"type": "FeatureCollection", "features": [ {"type": "Feature", "properties": {"norad_id": 42738, "name": "QZS-2 (QZSS/PRN 194)", "group": "gnss", "lat": 27.20944773149284, "lon": -75.94749294576411, "alt_km": 37952.628538882884, "timestamp": "2025-12-16T03:53:27.298114+00:00", "meta": {"OBJECT_NAME": "QZS-2 (QZSS/PRN 194)", "OBJECT_ID": "2017-028A", "EPOCH": "2025-12-14T14:03:05.064192", "MEAN_MOTION": 1.0028256, "ECCENTRICITY": 0.07572259, "INCLINATION": 39.7111, "RA_OF_ASC_NODE": 245.8564, "ARG_OF_PERICENTER": 269.4953, "MEAN_ANOMALY": 280.8017, "EPHEMERIS_TYPE": 0, "CLASSIFICATION_TYPE": "U", "NORAD_CAT_ID": 42738, "ELEMENT_SET_NO": 999, "REV_AT_EPOCH": 577, "BSTAR": 0, "MEAN_MOTION_DOT": -1.69e-06, "MEAN_MOTION_DDOT": 0}, "tle": {"line1": "1 42738U 17028A   25348.58547528 -.00000169  00000+0  00000+0 0  9993", "line2": "2 42738  39.7111 245.8564 0757225 269.4953 280.8017  1.00282560  5777"}}, "geometry": {"type": "Point", "coordinates": [-75.94749294576411, 27.20944773149284]}}, {"type": "Feature", "properties": {"norad_id": 42917, "name": "QZS-3 (QZSS/PRN 199)", "group": "gnss", "lat": 0.029336519040967693, "lon": -89.53427593443972, "alt_km": 35778.44637284584, "timestamp": "2025-12-16T03:53:27.298126+00:00", "meta": {"OBJECT_NAME": "QZS-3 (QZSS/PRN 199)", "OBJECT_ID": "2017-048A", "EPOCH": "2025-12-15T07:08:36.597984", "MEAN_MOTION": 1.00271016, "ECCENTRICITY": 0.00018846, "INCLINATION": 0.0596, "RA_OF_ASC_NODE": 185.4779, "ARG_OF_PERICENTER": 86.4104, "MEAN_ANOMALY": 46.5291, "EPHEMERIS_TYPE": 0, "CLASSIFICATION_TYPE": "U", "NORAD_CAT_ID": 42917, "ELEMENT_SET_NO": 999, "REV_AT_EPOCH": 3041, "BSTAR": 0, "MEAN_MOTION_DOT": -3.27e-06, "MEAN_MOTION_DDOT": 0}, "tle": {"line1": "1 42917U 17048A   25349.29764581 -.00000327  00000+0  00000+0 0  9999", "line2": "2 42917   0.0596 185.4779 0001884  86.4104  46.5291  1.00271016 30413"}}, "geometry": {"type": "Point", "coordinates": [-89.53427593443972, 0.029336519040967693]}}, {"type": "Feature", "properties": {"norad_id": 42939, "name": "COSMOS 2522 (752)", "group": "gnss", "lat": 33.96822345958968, "lon": -142.753771517828, "alt_km": 19142.229542983387, "timestamp": "2025-12-16T03:53:27.298138+00:00", "meta": {"OBJECT_NAME": "COSMOS 2522 (752)", "OBJECT_ID": "2017-055A", "EPOCH": "2025-12-15T04:09:48.799872", "MEAN_MOTION": 2.13102036, "ECCENTRICITY": 0.00063989, "INCLINATION": 64.076, "RA_OF_ASC_NODE": 198.1461, "ARG_OF_PERICENTER": 224.2568, "MEAN_ANOMALY": 135.7703, "EPHEMERIS_TYPE": 0, "CLASSIFICATION_TYPE": "U", "NORAD_CAT_ID": 42939, "ELEMENT_SET_NO": 999, "REV_AT_EPOCH": 6405, "BSTAR": 0, "MEAN_MOTION_DOT": 1.03e-06, "MEAN_MOTION_DDOT": 0}, "tle": {"line1": "1 42939U 17055A   25349.17348148  .00000103  00000+0  00000+0 0  9996", "line2": "2 42939  64.0760 198.1461 0006398 224.2568 135.7703  2.13102036 64056"}}, "geometry": {"type": "Point", "coordinates": [-142.753771517828, 33.96822345958968]}}, {"type": "Feature", "properties": {"norad_id": 42965, "name": "QZS-4 (QZSS/PRN 195)", "group": "gnss", "lat": -35.00719500977845, "lon": -70.14119016075666, "alt_km": 32882.864974853146, "timestamp": "2025-12-16T03:53:27.298150+00:00", "meta": {"OBJECT_NAME": "QZS-4 (QZSS/PRN 195)", "OBJECT_ID": "2017-062A", "EPOCH": "2025-12-15T07:11:51.608832", "MEAN_MOTION": 1.00252454, "ECCENTRICITY": 0.07516814, "INCLINATION": 40.2245, "RA_OF_ASC_NODE": 345.8377, "ARG_OF_PERICENTER": 271.611, "MEAN_ANOMALY": 70.9183, "EPHEMERIS_TYPE": 0, "CLASSIFICATION_TYPE": "U", "NORAD_CAT_ID": 42965, "ELEMENT_SET_NO": 999, "REV_AT_EPOCH": 2995, "BSTAR": 0, "MEAN_MOTION_DOT": -3.53e-06, "MEAN_MOTION_DDOT": 0}, "tle": {"line1": "1 42965U 17062A   25349.29990288 -.00000353  00000+0  00000+0 0  9992", "line2": "2 42965  40.2245 345.8377 0751681 271.6110  70.9183  1.00252454 29954"}}, "geometry": {"type": "Point", "coordinates": [-70.14119016075666, -35.00719500977845]}}, {"type": "Feature", "properties": {"norad_id": 43001, "name": "BEIDOU-3 M1 (C19)", "group": "gnss", "lat": 56.48263379913448, "lon": 154.956608831182, "alt_km": 21542.49989859501, "timestamp": "2025-12-16T03:53:27.298162+00:00", "meta": {"OBJECT_NAME": "BEIDOU-3 M1 (C19)", "OBJECT_ID": "2017-069A", "EPOCH": "2025-12-13T08:19:00.908256", "MEAN_MOTION": 1.86231197, "ECCENTRICITY": 0.00092543, "INCLINATION": 56.5278, "RA_OF_ASC_NODE": 69.2133, "ARG_OF_PERICENTER": 303.3207, "MEAN_ANOMALY": 56.6091, "EPHEMERIS_TYPE": 0, "CLASSIFICATION_TYPE": "U", "NORAD_CAT_ID": 43001, "ELEMENT_SET_NO": 999, "REV_AT_EPOCH": 5514, "BSTAR": 0, "MEAN_MOTION_DOT": -7.8e-07, "MEAN_MOTION_DDOT": 0}, "tle": {"line1": "1 43001U 17069A   25347.34653829 -.00000078  00000+0  00000+0 0  9996", "line2": "2 43001  56.5278  69.2133 0009254 303.3207  56.6091  1.86231197 55145"}}, "geometry": {"type": "Point", "coordinates": [154.956608831182, 56.48263379913448]}}, {"type": "Feature", "properties": {"norad_id": 43002, "name": "BEIDOU-3 M2 (C20)", "group": "gnss", "lat": 40.391069420810126, "lon": -145.02995909009616, "alt_km": 21539.624931393246, "timestamp": "2025-12-16T03:53:27.298174+00:00", "meta": {"OBJECT_NAME": "BEIDOU-3 M2 (C20)", "OBJECT_ID": "2017-069B", "EPOCH": "2025-12-12T17:57:03.193632", "MEAN_MOTION": 1.86230645, "ECCENTRICITY": 0.00063664, "INCLINATION": 56.5266, "RA_OF_ASC_NODE": 69.2696, "ARG_OF_PERICENTER": 331.453, "MEAN_ANOMALY": 28.5312, "EPHEMERIS_TYPE": 0, "CLASSIFICATION_TYPE": "U", "NORAD_CAT_ID": 43002, "ELEMENT_SET_NO": 999, "REV_AT_EPOCH": 5512, "BSTAR": 0, "MEAN_MOTION_DOT": -7.4e-07, "MEAN_MOTION_DDOT": 0}, "tle": {"line1": "1 43002U 17069B   25346.74795363 -.00000074  00000+0  00000+0 0  9996", "line2": "2 43002  56.5266  69.2696 0006366 331.4530  28.5312  1.86230645 55128"}}, "geometry": {"type": "Point", "coordinates": [-145.02995909009616, 40.391069420810126]}}, {"type": "Feature", "properties": {"norad_id": 43055, "name": "GSAT0215 (GALILEO 19)", "group": "gnss", "lat": 54.31073485162652, "lon": -29.34494953389104, "alt_km": 23217.01249333043, "timestamp": "2025-12-16T03:53:27.298186+00:00", "meta": {"OBJECT_NAME": "GSAT0215 (GALILEO 19)", "OBJECT_ID": "2017-079A", "EPOCH": "2025-12-11T21:30:24.060384", "MEAN_MOTION": 1.704739, "ECCENTRICITY": 0.00012658, "INCLINATION": 55.1303, "RA_OF_ASC_NODE": 226.661, "ARG_OF_PERICENTER": 350.6161, "MEAN_ANOMALY": 9.46, "EPHEMERIS_TYPE": 0, "CLASSIFICATION_TYPE": "U", "NORAD_CAT_ID": 43055, "ELEMENT_SET_NO": 999, "REV_AT_EPOCH": 4979, "BSTAR": 0, "MEAN_MOTION_DOT": 1.3e-07, "MEAN_MOTION_DDOT": 0}, "tle": {"line1": "1 43055U 17079A   25345.89611181  .00000013  00000+0  00000+0 0  9997", "line2": "2 43055  55.1303 226.6610 0001265 350.6161   9.4600  1.70473900 49794"}}, "geometry": {"type": "Point", "coordinates": [-29.34494953389104, 54.31073485162652]}}, {"type": "Feature", "properties": {"norad_id": 43056, "name": "GSAT0216 (GALILEO 20)", "group": "gnss", "lat": -54.05923054597103, "lon": 152.62364610349647, "alt_km": 23223.417900321263, "timestamp": "2025-12-16T03:53:27.298197+00:00", "meta": {"OBJECT_NAME": "GSAT0216 (GALILEO 20)", "OBJECT_ID": "2017-079B", "EPOCH": "2025-12-13T08:39:13.176288", "MEAN_MOTION": 1.70474029, "ECCENTRICITY": 0.00023036, "INCLINATION": 55.1302, "RA_OF_ASC_NODE": 226.6206, "ARG_OF_PERICENTER": 326.735, "MEAN_ANOMALY": 33.3311, "EPHEMERIS_TYPE": 0, "CLASSIFICATION_TYPE": "U", "NORAD_CAT_ID": 43056, "ELEMENT_SET_NO": 999, "REV_AT_EPOCH": 4983, "BSTAR": 0, "MEAN_MOTION_DOT": 2.3e-07, "MEAN_MOTION_DDOT": 0}, "tle": {"line1": "1 43056U 17079B   25347.36056917  .00000023  00000+0  00000+0 0  9993", "line2": "2 43056  55.1302 226.6206 0002303 326.7350  33.3311  1.70474029 49836"}}, "geometry": {"type": "Point", "coordinates": [152.62364610349647, -54.05923054597103]}}, {"type": "Feature", "properties": {"norad_id": 43057, "name": "GSAT0217 (GALILEO 21)", "group": "gnss", "lat": 28.863710747472282, "lon": 23.967502749007956, "alt_km": 23226.291161790443, "timestamp": "2025-12-16T03:53:27.298210+00:00", "meta": {"OBJECT_NAME": "GSAT0217 (GALILEO 21)", "OBJECT_ID": "2017-079C", "EPOCH": "2025-12-14T18:06:24.484320", "MEAN_MOTION": 1.70474057, "ECCENTRICITY": 0.00027983, "INCLINATION": 55.1277, "RA_OF_ASC_NODE": 226.5802, "ARG_OF_PERICENTER": 346.6847, "MEAN_ANOMALY": 13.3944, "EPHEMERIS_TYPE": 0, "CLASSIFICATION_TYPE": "U", "NORAD_CAT_ID": 43057, "ELEMENT_SET_NO": 999, "REV_AT_EPOCH": 4984, "BSTAR": 0, "MEAN_MOTION_DOT": 3.5e-07, "MEAN_MOTION_DDOT": 0}, "tle": {"line1": "1 43057U 17079C   25348.75445005  .00000035  00000+0  00000+0 0  9991", "line2": "2 43057  55.1277 226.5802 0002798 346.6847  13.3944  1.70474057 49841"}}, "geometry": {"type": "Point", "coordinates": [23.967502749007956, 28.863710747472282]}}, {"type": "Feature", "properties": {"norad_id": 43058, "name": "GSAT0218 (GALILEO 22)", "group": "gnss", "lat": 7.270851273516841, "lon": -128.35269370695676, "alt_km": 23217.596021718622, "timestamp": "2025-12-16T03:53:27.298224+00:00", "meta": {"OBJECT_NAME": "GSAT0218 (GALILEO 22)", "OBJECT_ID": "2017-079D", "EPOCH": "2025-12-12T15:04:31.769472", "MEAN_MOTION": 1.70474063, "ECCENTRICITY": 0.00028411, "INCLINATION": 55.1287, "RA_OF_ASC_NODE": 226.6365, "ARG_OF_PERICENTER": 306.3289, "MEAN_ANOMALY": 53.7237, "EPHEMERIS_TYPE": 0, "CLASSIFICATION_TYPE": "U", "NORAD_CAT_ID": 43058, "ELEMENT_SET_NO": 999, "REV_AT_EPOCH": 4983, "BSTAR": 0, "MEAN_MOTION_DOT": 1.7e-07, "MEAN_MOTION_DDOT": 0}, "tle": {"line1": "1 43058U 17079D   25346.62814548  .00000017  00000+0  00000+0 0  9998", "line2": "2 43058  55.1287 226.6365 0002841 306.3289  53.7237  1.70474063 49839"}}, "geometry": {"type": "Point", "coordinates": [-128.35269370695676, 7.270851273516841]}}]}